NORAD_CAT_ID,OBJECT_NAME,OBJECT_TYPE,EPOCH,MEAN_MOTION,ECCENTRICITY,INCLINATION,RA_OF_ASC_NODE,ARG_OF_PERICENTER,MEAN_ANOMALY,BSTAR,MEAN_MOTION_DOT,MEAN_MOTION_DDOT,TLE_LINE0,TLE_LINE1,TLE_LINE2,SEMIMAJOR_AXIS,PERIOD,APOGEE,PERIGEE,DECAYED
49747.0,STARLINK-3247,PAYLOAD,2024-06-07 22:54:09,15.08838768,0.0001409,53.2165,141.0051,88.5495,271.5658,7.8276e-05,9.58e-06,0.0,0 STARLINK-3247,1 49747U 21115Z   24159.95427361  .00000958  00000-0  78276-4 0  9995,2 49747  53.2165 141.0051 0001409  88.5495 271.5658 15.08838768138954,6917.884,95.438,540.724,538.774,0.0
49747.0,STARLINK-3247,PAYLOAD,2024-06-08 08:26:27,15.08843295,0.0001454,53.2166,139.2207,89.492,270.6239,8.5683e-05,1.076e-05,0.0,0 STARLINK-3247,1 49747U 21115Z   24160.35171073  .00001076  00000-0  85683-4 0  9999,2 49747  53.2166 139.2207 0001454  89.4920 270.6239 15.08843295139014,6917.87,95.437,540.741,538.729,0.0
49747.0,STARLINK-3247,PAYLOAD,2024-06-09 05:06:28,15.08847101,0.0001483,53.2172,135.3538,91.4029,268.7133,-0.00014375,-2.575e-05,0.0,0 STARLINK-3247,1 49747U 21115Z   24161.21283398 -.00002575  00000-0 -14375-3 0  9995,2 49747  53.2172 135.3538 0001483  91.4029 268.7133 15.08847101140259,6917.859,95.437,540.75,538.698,0.0
49747.0,STARLINK-3247,PAYLOAD,2024-06-09 08:17:15,15.08824276,0.0001526,53.2172,134.7591,95.7148,264.4018,0.00016727,2.374e-05,0.0,0 STARLINK-3247,1 49747U 21115Z   24161.34532068  .00002374  00000-0  16727-3 0  9998,2 49747  53.2172 134.7591 0001526  95.7148 264.4018 15.08824276140273,6917.928,95.439,540.849,538.738,0.0
49747.0,STARLINK-3247,PAYLOAD,2024-06-10 04:57:16,15.08839242,0.0001384,53.2172,130.8947,92.2716,267.8435,6.1883e-05,6.97e-06,0.0,0 STARLINK-3247,1 49747U 21115Z   24162.20643731  .00000697  00000-0  61883-4 0  9994,2 49747  53.2172 130.8947 0001384  92.2716 267.8435 15.08839242140404,6917.883,95.438,540.705,538.79,0.0
49747.0,STARLINK-3247,PAYLOAD,2024-06-10 14:29:35,15.0884091,0.0001357,53.2172,129.1108,90.4107,269.7041,2.2349e-05,6.8e-07,0.0,0 STARLINK-3247,1 49747U 21115Z   24162.60387784  .00000068  00000-0  22349-4 0  9997,2 49747  53.2172 129.1108 0001357  90.4107 269.7041 15.08840910139358,6917.878,95.437,540.681,538.804,0.0
49747.0,STARLINK-3247,PAYLOAD,2024-06-11 07:58:49,15.08839466,0.0001384,53.2178,125.8404,93.9776,266.1375,9.5295e-05,1.229e-05,0.0,0 STARLINK-3247,1 49747U 21115Z   24163.33251958  .00001229  00000-0  95295-4 0  9991,2 49747  53.2178 125.8404 0001384  93.9776 266.1375 15.08839466139463,6917.882,95.438,540.704,538.79,0.0
49747.0,STARLINK-3247,PAYLOAD,2024-06-12 04:38:49,15.08848053,0.0001356,53.2179,121.9749,95.0371,265.0776,0.00010668,1.411e-05,0.0,0 STARLINK-3247,1 49747U 21115Z   24164.19363357  .00001411  00000-0  10668-3 0  9996,2 49747  53.2179 121.9749 0001356  95.0371 265.0776 15.08848053140700,6917.856,95.437,540.659,538.783,0.0
49747.0,STARLINK-3247,PAYLOAD,2024-06-12 06:14:12,15.08850132,0.000139,53.2181,121.6779,96.6099,263.5051,0.00012649,1.726e-05,0.0,0 STARLINK-3247,1 49747U 21115Z   24164.25987150  .00001726  00000-0  12649-3 0  9996,2 49747  53.2181 121.6779 0001390  96.6099 263.5051 15.08850132139602,6917.849,95.437,540.676,538.753,0.0
49747.0,STARLINK-3247,PAYLOAD,2024-06-13 04:29:38,15.08836005,0.0001395,53.2174,117.5137,83.2497,276.8654,-1.2672e-05,-4.9e-06,0.0,0 STARLINK-3247,1 49747U 21115Z   24165.18724759 -.00000490  00000-0 -12672-4 0  9999,2 49747  53.2174 117.5137 0001395  83.2497 276.8654 15.08836005140853,6917.893,95.438,540.723,538.793,0.0
49747.0,STARLINK-3247,PAYLOAD,2024-06-13 14:01:57,15.08836585,0.0001411,53.2177,115.7298,87.3021,272.8133,-2.4822e-06,-3.27e-06,0.0,0 STARLINK-3247,1 49747U 21115Z   24165.58468752 -.00000327  00000-0 -24822-5 0  9991,2 49747  53.2177 115.7298 0001411  87.3021 272.8133 15.08836585139805,6917.891,95.438,540.732,538.78,0.0
49747.0,STARLINK-3247,PAYLOAD,2024-06-14 04:20:24,15.0884733,0.0001362,53.2176,113.0516,88.6947,271.4201,1.4811e-05,-5.2e-07,0.0,0 STARLINK-3247,1 49747U 21115Z   24166.18084090 -.00000052  00000-0  14811-4 0  9997,2 49747  53.2176 113.0516 0001362  88.6947 271.4201 15.08847330139894,6917.858,95.437,540.665,538.781,0.0
49747.0,STARLINK-3247,PAYLOAD,2024-06-14 20:14:16,15.08841271,0.0001396,53.2174,110.0799,85.9039,274.2112,0.00012222,1.658e-05,0.0,0 STARLINK-3247,1 49747U 21115Z   24166.84324278  .00001658  00000-0  12222-3 0  9990,2 49747  53.2174 110.0799 0001396  85.9039 274.2112 15.08841271139992,6917.877,95.437,540.707,538.776,0.0
49747.0,STARLINK-3247,PAYLOAD,2024-06-15 02:35:48,15.08848551,0.0001291,53.2165,108.8902,91.1666,268.9474,0.0001696,2.413e-05,0.0,0 STARLINK-3247,1 49747U 21115Z   24167.10819651  .00002413  00000-0  16960-3 0  9997,2 49747  53.2165 108.8902 0001291  91.1666 268.9474 15.08848551140038,6917.854,95.437,540.612,538.826,0.0
49747.0,STARLINK-3247,PAYLOAD,2024-06-16 02:26:35,15.08845879,0.0001272,53.2188,104.4306,97.7518,262.3618,0.00011375,1.523e-05,0.0,0 STARLINK-3247,1 49747U 21115Z   24168.10179815  .00001523  00000-0  11375-3 0  9995,2 49747  53.2188 104.4306 0001272  97.7518 262.3618 15.08845879140184,6917.862,95.437,540.607,538.847,0.0
49747.0,STARLINK-3247,PAYLOAD,2024-06-16 19:55:50,15.08836067,0.0001223,53.2175,101.161,97.9469,262.1662,-1.9566e-05,-5.99e-06,0.0,0 STARLINK-3247,1 49747U 21115Z   24168.83044879 -.00000599  00000-0 -19566-4 0  9991,2 49747  53.2175 101.1610 0001223  97.9469 262.1662 15.08836067140293,6917.892,95.438,540.603,538.911,0.0
49747.0,STARLINK-3247,PAYLOAD,2024-06-17 22:57:24,15.08838261,0.0001194,53.2176,96.1038,102.9842,257.1283,7.4793e-06,-1.69e-06,0.0,0 STARLINK-3247,1 49747U 21115Z   24169.95652927 -.00000169  00000-0  74793-5 0  9990,2 49747  53.2176  96.1038 0001194 102.9842 257.1283 15.08838261140460,6917.886,95.438,540.577,538.925,0.0
49747.0,STARLINK-3247,PAYLOAD,2024-06-18 02:08:10,15.08843256,0.0001186,53.2175,95.5104,99.5601,260.5525,3.5361e-05,2.75e-06,0.0,0 STARLINK-3247,1 49747U 21115Z   24170.08900581  .00000275  00000-0  35361-4 0  9992,2 49747  53.2175  95.5104 0001186  99.5601 260.5525 15.08843256141593,6917.87,95.437,540.556,538.915,0.0
49747.0,STARLINK-3247,PAYLOAD,2024-06-18 11:40:29,15.08835029,0.0001225,53.2174,93.7268,101.8719,258.241,0.00016757,2.38e-05,0.0,0 STARLINK-3247,1 49747U 21115Z   24170.48644825  .00002380  00000-0  16757-3 0  9998,2 49747  53.2174  93.7268 0001225 101.8719 258.2410 15.08835029140544,6917.896,95.438,540.608,538.913,0.0
49747.0,STARLINK-3247,PAYLOAD,2024-06-18 19:37:25,15.08830305,0.0001561,53.2185,92.2402,106.7831,253.3332,-7.1064e-07,-2.99e-06,0.0,0 STARLINK-3247,1 49747U 21115Z   24170.81765766 -.00000299  00000-0 -71064-6 0  9997,2 49747  53.2185  92.2402 0001561 106.7831 253.3332 15.08830305141702,6917.91,95.438,540.855,538.695,0.0
49747.0,STARLINK-3247,PAYLOAD,2024-06-19 11:31:16,15.08836739,0.0001329,53.218,89.2663,94.4582,265.6562,8.4784e-05,1.062e-05,0.0,0 STARLINK-3247,1 49747U 21115Z   24171.48005364  .00001062  00000-0  84784-4 0  9990,2 49747  53.2180  89.2663 0001329  94.4582 265.6562 15.08836739141809,6917.89,95.438,540.675,538.836,0.0
49747.0,STARLINK-3247,PAYLOAD,2024-06-19 22:38:58,15.08837634,0.000148,53.2193,87.1866,98.3128,261.8032,4.2968e-05,3.96e-06,0.0,0 STARLINK-3247,1 49747U 21115Z   24171.94373584  .00000396  00000-0  42968-4 0  9990,2 49747  53.2193  87.1866 0001480  98.3128 261.8032 15.08837634140761,6917.888,95.438,540.776,538.729,0.0
49747.0,STARLINK-3247,PAYLOAD,2024-06-20 11:22:03,15.08844373,0.0001463,53.2185,84.8047,88.0908,272.0252,3.458e-05,2.62e-06,0.0,0 STARLINK-3247,1 49747U 21115Z   24172.47365199  .00000262  00000-0  34580-4 0  9995,2 49747  53.2185  84.8047 0001463  88.0908 272.0252 15.08844373140845,6917.867,95.437,540.744,538.72,0.0
49747.0,STARLINK-3247,PAYLOAD,2024-06-20 22:29:45,15.08839503,0.0001442,53.2183,82.7245,91.9091,268.2066,0.00012999,1.781e-05,0.0,0 STARLINK-3247,1 49747U 21115Z   24172.93733276  .00001781  00000-0  12999-3 0  9997,2 49747  53.2183  82.7245 0001442  91.9091 268.2066 15.08839503140910,6917.882,95.438,540.744,538.749,0.0
49747.0,STARLINK-3247,PAYLOAD,2024-06-21 00:05:08,15.08843008,0.0001456,53.2183,82.4272,93.4654,266.6504,9.9044e-05,1.289e-05,0.0,0 STARLINK-3247,1 49747U 21115Z   24173.00357150  .00001289  00000-0  99044-4 0  9999,2 49747  53.2183  82.4272 0001456  93.4654 266.6504 15.08843008142033,6917.871,95.437,540.743,538.729,0.0
49747.0,STARLINK-3247,PAYLOAD,2024-06-21 03:15:54,15.08849411,0.0001372,53.2179,81.8317,93.6025,266.5124,0.0001445,2.013e-05,0.0,0 STARLINK-3247,1 49747U 21115Z   24173.13604587  .00002013  00000-0  14450-3 0  9995,2 49747  53.2179  81.8317 0001372  93.6025 266.5124 15.08849411142055,6917.852,95.437,540.666,538.767,0.0
49747.0,STARLINK-3247,PAYLOAD,2024-06-21 17:34:23,15.0883786,0.0001489,53.2176,79.1533,92.8297,267.2866,5.8223e-05,6.39e-06,0.0,0 STARLINK-3247,1 49747U 21115Z   24173.73221613  .00000639  00000-0  58223-4 0  9995,2 49747  53.2176  79.1533 0001489  92.8297 267.2866 15.08837860142149,6917.887,95.438,540.782,538.722,0.0
49747.0,STARLINK-3247,PAYLOAD,2024-06-21 22:20:32,15.08839595,0.00017,53.2184,78.2639,91.9274,268.1913,7.0178e-05,8.29e-06,0.0,0 STARLINK-3247,1 49747U 21115Z   24173.93093498  .00000829  00000-0  70178-4 0  9999,2 49747  53.2184  78.2639 0001700  91.9274 268.1913 15.08839595141066,6917.882,95.438,540.923,538.571,0.0
49747.0,STARLINK-3247,PAYLOAD,2024-06-21 23:55:55,15.0884161,0.0001443,53.2172,77.9663,97.6185,262.4971,1.482e-05,-5.2e-07,0.0,0 STARLINK-3247,1 49747U 21115Z   24173.99717421 -.00000052  00000-0  14820-4 0  9995,2 49747  53.2172  77.9663 0001443  97.6185 262.4971 15.08841610141077,6917.875,95.437,540.739,538.742,0.0
49747.0,STARLINK-3247,PAYLOAD,2024-06-22 20:35:56,15.0884301,0.0001379,53.217,74.1007,84.0015,276.1134,6.2036e-05,7e-06,0.0,0 STARLINK-3247,1 49747U 21115Z   24174.85829176  .00000700  00000-0  62036-4 0  9993,2 49747  53.2170  74.1007 0001379  84.0015 276.1134 15.08843010142313,6917.871,95.437,540.69,538.782,0.0
